*******************************************************************************
JPL/HORIZONS                128 Nemesis (A872 WA)          2020-Jun-20 08:18:05
Rec #:     128 (+COV) Soln.date: 2020-May-20_00:59:13   # obs: 2647 (1872-2020)
 
IAU76/J2000 helio. ecliptic osc. elements (au, days, deg., period=Julian yrs):
 
  EPOCH=  2455441.5 ! 2010-Sep-02.00 (TDB)         Residual RMS= .34966
   EC= .1247806118024017   QR= 2.407512888564301   TP= 2454930.2306289799
   OM= 76.42321236741049   W=  302.7505245488514   IN= 6.248013268669406
   A= 2.750753606501181    MA= 110.4526940643036   ADIST= 3.093994324438062
   PER= 4.56232            N= .216036198           ANGMOM= .028307379
   DAN= 2.53669            DDN= 2.90395            L= 19.329245
   B= -5.2517338           MOID= 1.41632998        TP= 2009-Apr-08.7306289799
 
Asteroid physical parameters (km, seconds, rotational period in hours):
   GM= n.a.                RAD= 81.2575            ROTPER= 77.81
   H= 7.8                  G= .150                 B-V= .685
                           ALBEDO= .067            STYP= C
 
ASTEROID comments: 
1: soln ref.= JPL#107, OCC=0
2: source=ORB
*******************************************************************************
 
 
*******************************************************************************
Ephemeris / WWW_USER Sat Jun 20 08:18:05 2020 Pasadena, USA      / Horizons
*******************************************************************************
Target body name: 128 Nemesis (A872 WA)           {source: JPL#107}
Center body name: Solar System Barycenter (0)     {source: DE431}
Center-site name: BODY CENTER
*******************************************************************************
Start time      : A.D. 1969-Jun-28 00:00:00.0000 TDB
Stop  time      : A.D. 2071-May-04 00:00:00.0000 TDB
Step-size       : 7200 minutes
*******************************************************************************
Center geodetic : 0.00000000,0.00000000,0.0000000 {E-lon(deg),Lat(deg),Alt(km)}
Center cylindric: 0.00000000,0.00000000,0.0000000 {E-lon(deg),Dxy(km),Dz(km)}
Center radii    : (undefined)                                                  
Small perturbers: Yes                             {source: SB431-N16}
Output units    : AU-D
Output type     : GEOMETRIC cartesian states
Output format   : 2 (position and velocity)
Reference frame : Ecliptic of J2000.0
*******************************************************************************
Initial IAU76/J2000 heliocentric ecliptic osculating elements (au, days, deg.):
  EPOCH=  2455441.5 ! 2010-Sep-02.00 (TDB)         Residual RMS= .34966        
   EC= .1247806118024017   QR= 2.407512888564301   TP= 2454930.2306289799      
   OM= 76.42321236741049   W=  302.7505245488514   IN= 6.248013268669406       
  Equivalent ICRF heliocentric equatorial cartesian coordinates (au, au/d):
   X=-2.281524847755007E+00  Y= 1.514778271048680E+00  Z= 9.711344898545312E-01
  VX=-6.802532141789565E-03 VY=-6.673275189849026E-03 VZ=-2.301310875122169E-03
Asteroid physical parameters (km, seconds, rotational period in hours):        
   GM= n.a.                RAD= 81.2575            ROTPER= 77.81               
   H= 7.8                  G= .150                 B-V= .685                   
                           ALBEDO= .067            STYP= C                     
*******************************************************************************
            JDTDB,            Calendar Date (TDB),        delta-T,                      X,                      Y,                      Z,                     VX,                     VY,                     VZ,
******************************************************************************************************************************************************************************************************************
$$SOE
2474420.500000000, A.D. 2062-Aug-19 00:00:00.0000,      69.182886, -6.245759532922398E-01, -2.840541754727758E+00, -1.001883225808377E-02,  9.709040097541866E-03, -9.889828267971824E-04, -1.056597809246712E-03,
2474425.500000000, A.D. 2062-Aug-24 00:00:00.0000,      69.182788, -5.759379160431096E-01, -2.845056969261883E+00, -1.530003670629773E-02,  9.745719152751612E-03, -8.168888353710800E-04, -1.055829823147481E-03,
2474430.500000000, A.D. 2062-Aug-29 00:00:00.0000,      69.182700, -5.271233531696045E-01, -2.848708527271116E+00, -2.057658601346336E-02,  9.779643355381529E-03, -6.435253963635768E-04, -1.054735151413700E-03,
2474435.500000000, A.D. 2062-Sep-03 00:00:00.0000,      69.182622, -4.781461440495922E-01, -2.851490160185709E+00, -2.584683773155950E-02,  9.810770612856371E-03, -4.689241733798311E-04, -1.053310186483967E-03,
2474440.500000000, A.D. 2062-Sep-08 00:00:00.0000,      69.182555, -4.290203792053259E-01, -2.853395760731217E+00, -3.110913138313589E-02,  9.839058563516077E-03, -2.931180273870529E-04, -1.051551324696166E-03,
2474445.500000000, A.D. 2062-Sep-13 00:00:00.0000,      69.182497, -3.797603615946488E-01, -2.854419389012546E+00, -3.636178848919460E-02,  9.864464598592724E-03, -1.161410557010908E-04, -1.049454969673839E-03,
2474450.500000000, A.D. 2062-Sep-18 00:00:00.0000,      69.182448, -3.303806077879154E-01, -2.854555278794259E+00, -4.160311261449069E-02,  9.886945885959232E-03,  6.197136850738034E-05, -1.047017535908931E-03,
2474455.500000000, A.D. 2062-Sep-23 00:00:00.0000,      69.182411, -2.808958490215950E-01, -2.853797843979559E+00, -4.683138943125682E-02,  9.906459395719160E-03,  2.411825562610210E-04, -1.044235452548851E-03,
2474460.500000000, A.D. 2062-Sep-28 00:00:00.0000,      69.182386, -2.313210321191732E-01, -2.852141685289963E+00, -5.204488680238864E-02,  9.922961927708678E-03,  4.214544624732376E-04, -1.041105167395793E-03,
2474465.500000000, A.D. 2062-Oct-03 00:00:00.0000,      69.182375, -1.816713202696002E-01, -2.849581597147010E+00, -5.724185488517285E-02,  9.936410140996678E-03,  6.027476454755572E-04, -1.037623151127783E-03,
2474470.500000000, A.D. 2062-Oct-08 00:00:00.0000,      69.182376, -1.319620936528835E-01, -2.846112574756300E+00, -6.242052625672049E-02,  9.946760585567963E-03,  7.850212265774419E-04, -1.033785901760015E-03,
2474475.500000000, A.D. 2062-Oct-13 00:00:00.0000,      69.182388, -8.220894990131263E-02, -2.841729821393659E+00, -6.757911606233925E-02,  9.953969736413524E-03,  9.682328496202287E-04, -1.029589949365832E-03,
2474480.500000000, A.D. 2062-Oct-18 00:00:00.0000,      69.182410, -3.242770438403518E-02, -2.836428755894159E+00, -7.271582218817842E-02,  9.957994030096066E-03,  1.152338640252156E-03, -1.025031861059544E-03,
2474485.500000000, A.D. 2062-Oct-23 00:00:00.0000,      69.182444,  1.736560969725711E-02, -2.830205020345527E+00, -7.782882545941788E-02,  9.958789903732662E-03,  1.337293164905102E-03, -1.020108246234541E-03,
2474490.500000000, A.D. 2062-Oct-28 00:00:00.0000,      69.182492,  6.715474141358391E-02, -2.823054487987102E+00, -8.291628986529966E-02,  9.956313836396178E-03,  1.523049389645859E-03, -1.014815762058710E-03,
2474495.500000000, A.D. 2062-Nov-02 00:00:00.0000,      69.182552,  1.169232224271296E-01, -2.814973271314441E+00, -8.797636281228666E-02,  9.950522393004998E-03,  1.709558639082292E-03, -1.009151119236354E-03,
2474500.500000000, A.D. 2062-Nov-07 00:00:00.0000,      69.182623,  1.666543675354689E-01, -2.805957730389004E+00, -9.300717540671978E-02,  9.941372270745829E-03,  1.896770555449542E-03, -1.003111088042838E-03,
2474505.500000000, A.D. 2062-Nov-12 00:00:00.0000,      69.182703,  2.163312754542570E-01, -2.796004481351639E+00, -9.800684276833135E-02,  9.928820348035524E-03,  2.084633058032549E-03, -9.966925046335097E-04,
2474510.500000000, A.D. 2062-Nov-17 00:00:00.0000,      69.182791,  2.659368298510639E-01, -2.785110405137637E+00, -1.029734643759848E-01,  9.912823736018454E-03,  2.273092303167645E-03, -9.898922776247292E-04,
2474515.500000000, A.D. 2062-Nov-22 00:00:00.0000,      69.182889,  3.154537006431126E-01, -2.773272656389663E+00, -1.079051244469921E-01,  9.893339832646243E-03,  2.462092645146235E-03, -9.827073949438927E-04,
2474520.500000000, A.D. 2062-Nov-27 00:00:00.0000,      69.182998,  3.648643455721650E-01, -2.760488672563205E+00, -1.127998923513534E-01,  9.870326379491864E-03,  2.651576598357331E-03, -9.751349309469901E-04,
2474525.500000000, A.D. 2062-Dec-02 00:00:00.0000,      69.183115,  4.141510120708329E-01, -2.746756183217679E+00, -1.176558230622524E-01,  9.843741521554910E-03,  2.841484800904580E-03, -9.671720538057642E-04,
2474530.500000000, A.D. 2062-Dec-07 00:00:00.0000,      69.183239,  4.632957394359991E-01, -2.732073219485614E+00, -1.224709576441781E-01,  9.813543870344299E-03,  3.031755979755601E-03, -9.588160331713345E-04,
2474535.500000000, A.D. 2062-Dec-12 00:00:00.0000,      69.183367,  5.122803613263250E-01, -2.716438123712424E+00, -1.272433237800798E-01,  9.779692570457573E-03,  3.222326917332920E-03, -9.500642481272078E-04,
2474540.500000000, A.D. 2062-Dec-17 00:00:00.0000,      69.183499,  5.610865086016149E-01, -2.699849559259933E+00, -1.319709363390480E-01,  9.742147369746738E-03,  3.413132419396639E-03, -9.409141954493716E-04,
2474545.500000000, A.D. 2062-Dec-22 00:00:00.0000,      69.183635,  6.096956125218984E-01, -2.682306520467495E+00, -1.366517979860944E-01,  9.700868693021175E-03,  3.604105284123515E-03, -9.313634981889579E-04,
2474550.500000000, A.D. 2062-Dec-27 00:00:00.0000,      69.183776,  6.580889083235363E-01, -2.663808342764600E+00, -1.412838998356717E-01,  9.655817719117736E-03,  3.795176272460105E-03, -9.214099145815303E-04,
2474555.500000000, A.D. 2063-Jan-01 00:00:00.0000,      69.183920,  7.062474391886581E-01, -2.644354712927828E+00, -1.458652221505257E-01,  9.606956461137801E-03,  3.986274080125910E-03, -9.110513472736059E-04,
